[{"OBJECT_NAME":"SHIJIAN-6 03B (SJ-6 03B)","OBJECT_ID":"2008-053B","EPOCH":"2026-03-09T23:28:00.216192","MEAN_MOTION":15.03879314,"ECCENTRICITY":0.00200774,"INCLINATION":97.8673,"RA_OF_ASC_NODE":87.2117,"ARG_OF_PERICENTER":21.0315,"MEAN_ANOMALY":339.1731,"EPHEMERIS_TYPE":0,"CLASSIFICATION_TYPE":"U","NORAD_CAT_ID":33409,"ELEMENT_SET_NO":999,"REV_AT_EPOCH":94783,"BSTAR":0.00032650966,"MEAN_MOTION_DOT":4.452e-5,"MEAN_MOTION_DDOT":0},{"OBJECT_NAME":"STARLINK-34564","OBJECT_ID":"2025-152L","EPOCH":"2026-03-09T12:46:03.832320","MEAN_MOTION":15.05653403,"ECCENTRICITY":0.00025131,"INCLINATION":97.6022,"RA_OF_ASC_NODE":285.3515,"ARG_OF_PERICENTER":80.3591,"MEAN_ANOMALY":279.7919,"EPHEMERIS_TYPE":0,"CLASSIFICATION_TYPE":"U","NORAD_CAT_ID":64852,"ELEMENT_SET_NO":999,"REV_AT_EPOCH":3539,"BSTAR":0.00036496596,"MEAN_MOTION_DOT":5.21e-5,"MEAN_MOTION_DDOT":0}]
